ATLAS CENTAUR 2         
1 00694U 63047A   26080.49356442  .00001909  00000+0  22005-3 0  9992
2 00694  30.3536 129.6725 0547430 184.3176 175.2559 14.12109735133291
THOR AGENA D R/B        
1 00733U 64002A   26080.94181117  .00000152  00000+0  71491-4 0  9996
2 00733  99.1220  94.9470 0032256 221.5088 138.3645 14.34026483240051
SL-3 R/B                
1 00877U 64053B   26080.94157537  .00000150  00000+0  53274-4 0  9997
2 00877  65.0763 295.3172 0080181 288.3629  70.8763 14.61376427268587
SL-8 R/B                
1 02802U 67045B   26080.82374151  .00000290  00000+0  87986-4 0  9993
2 02802  74.0125 325.4302 0064668 328.9599  30.7744 14.45632344 90771
SL-8 R/B                
1 03230U 68040B   26080.88813181  .00003082  00000+0  22872-3 0  9996
2 03230  74.0292 288.7666 0023450 107.8327 252.5422 15.03332334 91840
OAO 2                   
1 03597U 68110A   26080.71788733  .00000241  00000+0  70055-4 0  9997
2 03597  34.9924 198.0646 0006183 292.4404  67.5632 14.47314385 20847
ISIS 1                  
1 03669U 69009A   26080.66767671  .00000154  00000+0  94368-4 0  9993
2 03669  88.4522 154.0020 1707860  64.9994 311.8478 11.30417531349887
SERT 2                  
1 04327U 70009A   26080.84912448  .00000003  00000+0  59934-4 0  9994
2 04327  99.2776  23.2783 0005458 127.0859 296.8682 13.58730866781540
SL-3 R/B                
1 05118U 71028B   26080.89465670  .00048921  00000+0  55225-3 0  9999
2 05118  81.2379  36.9435 0013679 233.1340 126.8661 15.62169174990571
ASTEX 1                 
1 05560U 71089A   26080.96157589  .00000415  00000+0  10559-3 0  9999
2 05560  92.7103 155.7267 0017191  49.3831 310.8867 14.50782008864084
SL-8 R/B                
1 05730U 71119B   26080.90189385  .00010498  00000+0  54829-3 0  9995
2 05730  73.8863 152.8891 0547166 116.9457 248.8673 14.38111917657246
OAO 3 (COPERNICUS)      
1 06153U 72065A   26080.78794745  .00000353  00000+0  76780-4 0  9994
2 06153  35.0047 228.3855 0007313 261.3046 243.3773 14.60007472847969
ATLAS CENTAUR R/B       
1 06155U 72065B   26080.72022363  .00001303  00000+0  18064-3 0  9996
2 06155  35.0005 235.2476 0032901 111.6681 248.7528 14.77719694843040
SL-8 R/B                
1 08459U 75112B   26080.88460406  .00000250  00000+0  90654-4 0  9998
2 08459  74.0637 356.4810 0014458  84.6151 275.6652 14.38210700633628
SL-3 R/B                
1 10114U 77057B   26080.88991700  .00016174  00000+0  33498-3 0  9999
2 10114  97.5789 253.3519 0006376 233.1663 126.9002 15.45827486670214
SEASAT 1                
1 10967U 78064A   26080.94707176  .00000232  00000+0  10330-3 0  9991
2 10967 108.0085 151.2194 0002530 280.0290  80.0570 14.46169832508288
SL-14 R/B               
1 11267U 79011B   26080.72007319  .00000648  00000+0  61384-4 0  9993
2 11267  82.5205  85.1514 0016609  22.8893 337.3063 14.91922713530573
