[{"OBJECT_NAME":"ATLAS CENTAUR 2","OBJECT_ID":"1963-047A","EPOCH":"2026-03-21T11:50:43.965888","MEAN_MOTION":14.12109735,"ECCENTRICITY":0.05474302,"INCLINATION":30.3536,"RA_OF_ASC_NODE":129.6725,"ARG_OF_PERICENTER":184.3176,"MEAN_ANOMALY":175.2559,"EPHEMERIS_TYPE":0,"CLASSIFICATION_TYPE":"U","NORAD_CAT_ID":694,"ELEMENT_SET_NO":999,"REV_AT_EPOCH":13329,"BSTAR":0.00022004576,"MEAN_MOTION_DOT":1.909e-5,"MEAN_MOTION_DDOT":0},{"OBJECT_NAME":"THOR AGENA D R/B","OBJECT_ID":"1964-002A","EPOCH":"2026-03-21T22:36:12.485088","MEAN_MOTION":14.34026483,"ECCENTRICITY":0.00322569,"INCLINATION":99.122,"RA_OF_ASC_NODE":94.947,"ARG_OF_PERICENTER":221.5088,"MEAN_ANOMALY":138.3645,"EPHEMERIS_TYPE":0,"CLASSIFICATION_TYPE":"U","NORAD_CAT_ID":733,"ELEMENT_SET_NO":999,"REV_AT_EPOCH":24005,"BSTAR":7.1491459e-5,"MEAN_MOTION_DOT":1.52e-6,"MEAN_MOTION_DDOT":0},{"OBJECT_NAME":"SL-3 R/B","OBJECT_ID":"1964-053B","EPOCH":"2026-03-21T22:35:52.111968","MEAN_MOTION":14.61376427,"ECCENTRICITY":0.00801816,"INCLINATION":65.0763,"RA_OF_ASC_NODE":295.3172,"ARG_OF_PERICENTER":288.3629,"MEAN_ANOMALY":70.8763,"EPHEMERIS_TYPE":0,"CLASSIFICATION_TYPE":"U","NORAD_CAT_ID":877,"ELEMENT_SET_NO":999,"REV_AT_EPOCH":26858,"BSTAR":5.3274391e-5,"MEAN_MOTION_DOT":1.5e-6,"MEAN_MOTION_DDOT":0},{"OBJECT_NAME":"SL-8 R/B","OBJECT_ID":"1967-045B","EPOCH":"2026-03-21T19:46:11.266464","MEAN_MOTION":14.45632344,"ECCENTRICITY":0.00646686,"INCLINATION":74.0125,"RA_OF_ASC_NODE":325.4302,"ARG_OF_PERICENTER":328.9599,"MEAN_ANOMALY":30.7744,"EPHEMERIS_TYPE":0,"CLASSIFICATION_TYPE":"U","NORAD_CAT_ID":2802,"ELEMENT_SET_NO":999,"REV_AT_EPOCH":9077,"BSTAR":8.7985535e-5,"MEAN_MOTION_DOT":2.9e-6,"MEAN_MOTION_DDOT":0},{"OBJECT_NAME":"SL-8 R/B","OBJECT_ID":"1968-040B","EPOCH":"2026-03-21T21:18:54.588384","MEAN_MOTION":15.03332334,"ECCENTRICITY":0.00234509,"INCLINATION":74.0292,"RA_OF_ASC_NODE":288.7666,"ARG_OF_PERICENTER":107.8327,"MEAN_ANOMALY":252.5422,"EPHEMERIS_TYPE":0,"CLASSIFICATION_TYPE":"U","NORAD_CAT_ID":3230,"ELEMENT_SET_NO":999,"REV_AT_EPOCH":9184,"BSTAR":0.00022872388,"MEAN_MOTION_DOT":3.082e-5,"MEAN_MOTION_DDOT":0},{"OBJECT_NAME":"OAO 2","OBJECT_ID":"1968-110A","EPOCH":"2026-03-21T17:13:45.465312","MEAN_MOTION":14.47314385,"ECCENTRICITY":0.00061838,"INCLINATION":34.9924,"RA_OF_ASC_NODE":198.0646,"ARG_OF_PERICENTER":292.4404,"MEAN_ANOMALY":67.5632,"EPHEMERIS_TYPE":0,"CLASSIFICATION_TYPE":"U","NORAD_CAT_ID":3597,"ELEMENT_SET_NO":999,"REV_AT_EPOCH":2084,"BSTAR":7.0054574e-5,"MEAN_MOTION_DOT":2.41e-6,"MEAN_MOTION_DDOT":0},{"OBJECT_NAME":"ISIS 1","OBJECT_ID":"1969-009A","EPOCH":"2026-03-21T16:01:27.267744","MEAN_MOTION":11.30417531,"ECCENTRICITY":0.17078608,"INCLINATION":88.4522,"RA_OF_ASC_NODE":154.002,"ARG_OF_PERICENTER":64.9994,"MEAN_ANOMALY":311.8478,"EPHEMERIS_TYPE":0,"CLASSIFICATION_TYPE":"U","NORAD_CAT_ID":3669,"ELEMENT_SET_NO":999,"REV_AT_EPOCH":34988,"BSTAR":9.4368027e-5,"MEAN_MOTION_DOT":1.54e-6,"MEAN_MOTION_DDOT":0},{"OBJECT_NAME":"SERT 2","OBJECT_ID":"1970-009A","EPOCH":"2026-03-21T20:22:44.355072","MEAN_MOTION":13.58730866,"ECCENTRICITY":0.00054589,"INCLINATION":99.2776,"RA_OF_ASC_NODE":23.2783,"ARG_OF_PERICENTER":127.0859,"MEAN_ANOMALY":296.8682,"EPHEMERIS_TYPE":0,"CLASSIFICATION_TYPE":"U","NORAD_CAT_ID":4327,"ELEMENT_SET_NO":999,"REV_AT_EPOCH":78154,"BSTAR":5.9933672e-5,"MEAN_MOTION_DOT":3.0e-8,"MEAN_MOTION_DDOT":0},{"OBJECT_NAME":"SL-3 R/B","OBJECT_ID":"1971-028B","EPOCH":"2026-03-21T21:28:18.338880","MEAN_MOTION":15.62169174,"ECCENTRICITY":0.00136794,"INCLINATION":81.2379,"RA_OF_ASC_NODE":36.9435,"ARG_OF_PERICENTER":233.134,"MEAN_ANOMALY":126.8661,"EPHEMERIS_TYPE":0,"CLASSIFICATION_TYPE":"U","NORAD_CAT_ID":5118,"ELEMENT_SET_NO":999,"REV_AT_EPOCH":99057,"BSTAR":0.00055225151,"MEAN_MOTION_DOT":0.00048921,"MEAN_MOTION_DDOT":0},{"OBJECT_NAME":"ASTEX 1","OBJECT_ID":"1971-089A","EPOCH":"2026-03-21T23:04:40.156896","MEAN_MOTION":14.50782008,"ECCENTRICITY":0.0017191,"INCLINATION":92.7103,"RA_OF_ASC_NODE":155.7267,"ARG_OF_PERICENTER":49.3831,"MEAN_ANOMALY":310.8867,"EPHEMERIS_TYPE":0,"CLASSIFICATION_TYPE":"U","NORAD_CAT_ID":5560,"ELEMENT_SET_NO":999,"REV_AT_EPOCH":86408,"BSTAR":0.00010559217,"MEAN_MOTION_DOT":4.15e-6,"MEAN_MOTION_DDOT":0},{"OBJECT_NAME":"SL-8 R/B","OBJECT_ID":"1971-119B","EPOCH":"2026-03-21T21:38:43.628640","MEAN_MOTION":14.38111917,"ECCENTRICITY":0.05471666,"INCLINATION":73.8863,"RA_OF_ASC_NODE":152.8891,"ARG_OF_PERICENTER":116.9457,"MEAN_ANOMALY":248.8673,"EPHEMERIS_TYPE":0,"CLASSIFICATION_TYPE":"U","NORAD_CAT_ID":5730,"ELEMENT_SET_NO":999,"REV_AT_EPOCH":65724,"BSTAR":0.0005482941,"MEAN_MOTION_DOT":0.00010498,"MEAN_MOTION_DDOT":0},{"OBJECT_NAME":"OAO 3 (COPERNICUS)","OBJECT_ID":"1972-065A","EPOCH":"2026-03-21T18:54:38.659680","MEAN_MOTION":14.60007472,"ECCENTRICITY":0.00073131,"INCLINATION":35.0047,"RA_OF_ASC_NODE":228.3855,"ARG_OF_PERICENTER":261.3046,"MEAN_ANOMALY":243.3773,"EPHEMERIS_TYPE":0,"CLASSIFICATION_TYPE":"U","NORAD_CAT_ID":6153,"ELEMENT_SET_NO":999,"REV_AT_EPOCH":84796,"BSTAR":7.6779561e-5,"MEAN_MOTION_DOT":3.53e-6,"MEAN_MOTION_DDOT":0},{"OBJECT_NAME":"ATLAS CENTAUR R/B","OBJECT_ID":"1972-065B","EPOCH":"2026-03-21T17:17:07.321632","MEAN_MOTION":14.77719694,"ECCENTRICITY":0.00329016,"INCLINATION":35.0005,"RA_OF_ASC_NODE":235.2476,"ARG_OF_PERICENTER":111.6681,"MEAN_ANOMALY":248.7528,"EPHEMERIS_TYPE":0,"CLASSIFICATION_TYPE":"U","NORAD_CAT_ID":6155,"ELEMENT_SET_NO":999,"REV_AT_EPOCH":84304,"BSTAR":0.00018063607,"MEAN_MOTION_DOT":1.303e-5,"MEAN_MOTION_DDOT":0},{"OBJECT_NAME":"SL-8 R/B","OBJECT_ID":"1975-112B","EPOCH":"2026-03-21T21:13:49.790784","MEAN_MOTION":14.382107,"ECCENTRICITY":0.00144583,"INCLINATION":74.0637,"RA_OF_ASC_NODE":356.481,"ARG_OF_PERICENTER":84.6151,"MEAN_ANOMALY":275.6652,"EPHEMERIS_TYPE":0,"CLASSIFICATION_TYPE":"U","NORAD_CAT_ID":8459,"ELEMENT_SET_NO":999,"REV_AT_EPOCH":63362,"BSTAR":9.0653954e-5,"MEAN_MOTION_DOT":2.5e-6,"MEAN_MOTION_DDOT":0},{"OBJECT_NAME":"SL-3 R/B","OBJECT_ID":"1977-057B","EPOCH":"2026-03-21T21:21:28.828800","MEAN_MOTION":15.45827486,"ECCENTRICITY":0.00063761,"INCLINATION":97.5789,"RA_OF_ASC_NODE":253.3519,"ARG_OF_PERICENTER":233.1663,"MEAN_ANOMALY":126.9002,"EPHEMERIS_TYPE":0,"CLASSIFICATION_TYPE":"U","NORAD_CAT_ID":10114,"ELEMENT_SET_NO":999,"REV_AT_EPOCH":67021,"BSTAR":0.00033498385,"MEAN_MOTION_DOT":0.00016174,"MEAN_MOTION_DDOT":0},{"OBJECT_NAME":"SEASAT 1","OBJECT_ID":"1978-064A","EPOCH":"2026-03-21T22:43:47.000064","MEAN_MOTION":14.46169832,"ECCENTRICITY":0.00025307,"INCLINATION":108.0085,"RA_OF_ASC_NODE":151.2194,"ARG_OF_PERICENTER":280.029,"MEAN_ANOMALY":80.057,"EPHEMERIS_TYPE":0,"CLASSIFICATION_TYPE":"U","NORAD_CAT_ID":10967,"ELEMENT_SET_NO":999,"REV_AT_EPOCH":50828,"BSTAR":0.00010330232,"MEAN_MOTION_DOT":2.32e-6,"MEAN_MOTION_DDOT":0},{"OBJECT_NAME":"SL-14 R/B","OBJECT_ID":"1979-011B","EPOCH":"2026-03-21T17:16:54.323616","MEAN_MOTION":14.91922713,"ECCENTRICITY":0.00166099,"INCLINATION":82.5205,"RA_OF_ASC_NODE":85.1514,"ARG_OF_PERICENTER":22.8893,"MEAN_ANOMALY":337.3063,"EPHEMERIS_TYPE":0,"CLASSIFICATION_TYPE":"U","NORAD_CAT_ID":11267,"ELEMENT_SET_NO":999,"REV_AT_EPOCH":53057,"BSTAR":6.1383916e-5,"MEAN_MOTION_DOT":6.48e-6,"MEAN_MOTION_DDOT":0}]
